start=new Date('2022-05-21T00:00:00.000Z').valueOf();
sats=[{"RCS_SIZE":"LARGE","CLASSIFICATION_TYPE":"U","LAUNCH_DATE":"2021-02-04","RA_OF_ASC_NODE":"118.7913","EPHEMERIS_TYPE":"0","ECCENTRICITY":"0.00019780","MEAN_MOTION_DDOT":"0.0000000000000","TIME_SYSTEM":"UTC","TLE_LINE2":"2 47559  53.0544 118.7913 0001978  44.5024 315.6124 15.06391441 71663","TLE_LINE1":"1 47559U 21009M   22140.30901839 -.00000410  00000-0 -86347-5 0  9994","OBJECT_NAME":"STARLINK-1958","MEAN_ELEMENT_THEORY":"SGP4","APOAPSIS":"548.610","SEMIMAJOR_AXIS":"6925.375","REV_AT_EPOCH":"7166","OBJECT_TYPE":"PAYLOAD","COUNTRY_CODE":"US","GP_ID":"204039724","NORAD_CAT_ID":"47559","OBJECT_ID":"2021-009M","ELEMENT_SET_NO":"999","FILE":"3455160","INCLINATION":"53.0544","REF_FRAME":"TEME","CENTER_NAME":"EARTH","ARG_OF_PERICENTER":"44.5024","DECAY_DATE":null,"PERIOD":"95.593","SITE":"AFETR","BSTAR":"-0.00000863470000","PERIAPSIS":"545.870","MEAN_MOTION_DOT":"-0.00000410","MEAN_ANOMALY":"315.6124","EPOCH":"2022-05-20T07:24:59.188896","MEAN_MOTION":"15.06391441"},{"MEAN_ELEMENT_THEORY":"SGP4","APOAPSIS":"548.752","SEMIMAJOR_AXIS":"6925.348","REV_AT_EPOCH":"7229","OBJECT_TYPE":"PAYLOAD","COUNTRY_CODE":"US","NORAD_CAT_ID":"47560","GP_ID":"204012783","OBJECT_ID":"2021-009N","TLE_LINE2":"2 47560  53.0521 118.2308 0002221  49.2990 310.8191 15.06400050 72297","TLE_LINE1":"1 47560U 21009N   22140.43433778 -.00000516  00000-0 -15707-4 0  9990","OBJECT_NAME":"STARLINK-1959","ECCENTRICITY":"0.00022210","MEAN_MOTION_DDOT":"0.0000000000000","TIME_SYSTEM":"UTC","RCS_SIZE":"LARGE","LAUNCH_DATE":"2021-02-04","CLASSIFICATION_TYPE":"U","RA_OF_ASC_NODE":"118.2308","EPHEMERIS_TYPE":"0","EPOCH":"2022-05-20T10:25:26.784192","MEAN_MOTION":"15.06400050","BSTAR":"-0.00001570700000","PERIAPSIS":"545.675","MEAN_MOTION_DOT":"-0.00000516","MEAN_ANOMALY":"310.8191","DECAY_DATE":null,"PERIOD":"95.592","SITE":"AFETR","ELEMENT_SET_NO":"999","FILE":"3454751","INCLINATION":"53.0521","REF_FRAME":"TEME","ARG_OF_PERICENTER":"49.2990","CENTER_NAME":"EARTH"},{"MEAN_MOTION_DDOT":"0.0000000000000","TIME_SYSTEM":"UTC","ECCENTRICITY":"0.00015230","CLASSIFICATION_TYPE":"U","LAUNCH_DATE":"2021-02-04","RA_OF_ASC_NODE":"138.0008","EPHEMERIS_TYPE":"0","RCS_SIZE":"LARGE","REV_AT_EPOCH":"7141","SEMIMAJOR_AXIS":"6925.365","OBJECT_TYPE":"PAYLOAD","COUNTRY_CODE":"US","NORAD_CAT_ID":"47561","GP_ID":"204040726","OBJECT_ID":"2021-009P","MEAN_ELEMENT_THEORY":"SGP4","APOAPSIS":"548.285","OBJECT_NAME":"STARLINK-1960","TLE_LINE2":"2 47561  53.0544 138.0008 0001523  59.9991 300.1149 15.06394500 71413","TLE_LINE1":"1 47561U 21009P   22140.48779145 -.00001116  00000-0 -56074-4 0  9996","DECAY_DATE":null,"PERIOD":"95.592","SITE":"AFETR","FILE":"3455160","INCLINATION":"53.0544","REF_FRAME":"TEME","CENTER_NAME":"EARTH","ARG_OF_PERICENTER":"59.9991","ELEMENT_SET_NO":"999","MEAN_MOTION":"15.06394500","EPOCH":"2022-05-20T11:42:25.181280","PERIAPSIS":"546.176","MEAN_MOTION_DOT":"-0.00001116","MEAN_ANOMALY":"300.1149","BSTAR":"-0.00005607400000"},{"EPHEMERIS_TYPE":"0","LAUNCH_DATE":"2021-02-04","CLASSIFICATION_TYPE":"U","RA_OF_ASC_NODE":"137.0293","RCS_SIZE":"LARGE","TIME_SYSTEM":"UTC","MEAN_MOTION_DDOT":"0.0000000000000","ECCENTRICITY":"0.00025920","OBJECT_NAME":"STARLINK-1961","TLE_LINE2":"2 47562  53.0534 137.0293 0002592  35.7475 324.3687 15.06393554 72047","TLE_LINE1":"1 47562U 21009Q   22140.70157879 -.00000562  00000-0 -18797-4 0  9990","COUNTRY_CODE":"US","OBJECT_TYPE":"PAYLOAD","OBJECT_ID":"2021-009Q","GP_ID":"204049084","NORAD_CAT_ID":"47562","SEMIMAJOR_AXIS":"6925.368","REV_AT_EPOCH":"7204","MEAN_ELEMENT_THEORY":"SGP4","APOAPSIS":"549.028","ARG_OF_PERICENTER":"35.7475","CENTER_NAME":"EARTH","FILE":"3455486","REF_FRAME":"TEME","INCLINATION":"53.0534","ELEMENT_SET_NO":"999","PERIOD":"95.593","SITE":"AFETR","DECAY_DATE":null,"MEAN_ANOMALY":"324.3687","PERIAPSIS":"545.438","MEAN_MOTION_DOT":"-0.00000562","BSTAR":"-0.00001879700000","MEAN_MOTION":"15.06393554","EPOCH":"2022-05-20T16:50:16.407456"},{"ELEMENT_SET_NO":"999","FILE":"3455160","REF_FRAME":"TEME","INCLINATION":"53.0539","ARG_OF_PERICENTER":"42.0619","CENTER_NAME":"EARTH","DECAY_DATE":null,"PERIOD":"95.592","SITE":"AFETR","BSTAR":"-0.00000321510000","PERIAPSIS":"545.682","MEAN_MOTION_DOT":"-0.00000330","MEAN_ANOMALY":"318.0539","EPOCH":"2022-05-20T09:24:24.623424","MEAN_MOTION":"15.06400724","RCS_SIZE":"LARGE","LAUNCH_DATE":"2021-02-04","CLASSIFICATION_TYPE":"U","RA_OF_ASC_NODE":"138.4233","EPHEMERIS_TYPE":"0","ECCENTRICITY":"0.00022080","MEAN_MOTION_DDOT":"0.0000000000000","TIME_SYSTEM":"UTC","TLE_LINE2":"2 47563  53.0539 138.4233 0002208  42.0619 318.0539 15.06400724 71398","TLE_LINE1":"1 47563U 21009R   22140.39195166 -.00000330  00000-0 -32151-5 0  9991","OBJECT_NAME":"STARLINK-1962","MEAN_ELEMENT_THEORY":"SGP4","APOAPSIS":"548.740","REV_AT_EPOCH":"7139","SEMIMAJOR_AXIS":"6925.346","OBJECT_TYPE":"PAYLOAD","COUNTRY_CODE":"US","GP_ID":"204040224","OBJECT_ID":"2021-009R","NORAD_CAT_ID":"47563"},{"EPHEMERIS_TYPE":"0","CLASSIFICATION_TYPE":"U","LAUNCH_DATE":"2021-02-04","RA_OF_ASC_NODE":"129.0209","RCS_SIZE":"LARGE","TIME_SYSTEM":"UTC","MEAN_MOTION_DDOT":"0.0000000000000","ECCENTRICITY":"0.00023170","OBJECT_NAME":"STARLINK-1963","TLE_LINE2":"2 47564  53.0531 129.0209 0002317  48.1019 312.0168 15.06397011 71512","TLE_LINE1":"1 47564U 21009S   22140.26017871  .00000857  00000-0  76470-4 0  9997","COUNTRY_CODE":"US","OBJECT_TYPE":"PAYLOAD","GP_ID":"204040474","OBJECT_ID":"2021-009S","NORAD_CAT_ID":"47564","SEMIMAJOR_AXIS":"6925.358","REV_AT_EPOCH":"7151","MEAN_ELEMENT_THEORY":"SGP4","APOAPSIS":"548.827","CENTER_NAME":"EARTH","ARG_OF_PERICENTER":"48.1019","FILE":"3455160","REF_FRAME":"TEME","INCLINATION":"53.0531","ELEMENT_SET_NO":"999","PERIOD":"95.592","SITE":"AFETR","DECAY_DATE":null,"MEAN_ANOMALY":"312.0168","PERIAPSIS":"545.618","MEAN_MOTION_DOT":"0.00000857","BSTAR":"0.00007647000000","MEAN_MOTION":"15.06397011","EPOCH":"2022-05-20T06:14:39.440544"},{"MEAN_MOTION":"15.06395961","EPOCH":"2022-05-20T10:55:58.443456","PERIAPSIS":"545.715","MEAN_MOTION_DOT":"-0.00001165","MEAN_ANOMALY":"311.5514","BSTAR":"-0.00005930300000","DECAY_DATE":null,"PERIOD":"95.592","SITE":"AFETR","FILE":"3455160","REF_FRAME":"TEME","INCLINATION":"53.0542","ARG_OF_PERICENTER":"48.5662","CENTER_NAME":"EARTH","ELEMENT_SET_NO":"999","REV_AT_EPOCH":"7154","SEMIMAJOR_AXIS":"6925.361","COUNTRY_CODE":"US","OBJECT_TYPE":"PAYLOAD","GP_ID":"204041225","OBJECT_ID":"2021-009T","NORAD_CAT_ID":"47565","MEAN_ELEMENT_THEORY":"SGP4","APOAPSIS":"548.737","OBJECT_NAME":"STARLINK-1964","TLE_LINE2":"2 47565  53.0542 128.1389 0002182  48.5662 311.5514 15.06395961 71546","TLE_LINE1":"1 47565U 21009T   22140.45553754 -.00001165  00000-0 -59303-4 0  9995","TIME_SYSTEM":"UTC","MEAN_MOTION_DDOT":"0.0000000000000","ECCENTRICITY":"0.00021820","LAUNCH_DATE":"2021-02-04","CLASSIFICATION_TYPE":"U","RA_OF_ASC_NODE":"128.1389","EPHEMERIS_TYPE":"0","RCS_SIZE":"LARGE"},{"DECAY_DATE":null,"SITE":"AFETR","PERIOD":"95.592","REF_FRAME":"TEME","INCLINATION":"53.0561","FILE":"3454693","CENTER_NAME":"EARTH","ARG_OF_PERICENTER":"40.5831","ELEMENT_SET_NO":"999","MEAN_MOTION":"15.06402350","EPOCH":"2022-05-20T10:46:41.040768","MEAN_MOTION_DOT":"-0.00001427","PERIAPSIS":"545.755","MEAN_ANOMALY":"319.5314","BSTAR":"-0.00007687300000","MEAN_MOTION_DDOT":"0.0000000000000","TIME_SYSTEM":"UTC","ECCENTRICITY":"0.00020960","RA_OF_ASC_NODE":"118.1708","CLASSIFICATION_TYPE":"U","LAUNCH_DATE":"2021-02-04","EPHEMERIS_TYPE":"0","RCS_SIZE":"LARGE","SEMIMAJOR_AXIS":"6925.341","REV_AT_EPOCH":"7229","NORAD_CAT_ID":"47566","GP_ID":"204010654","OBJECT_ID":"2021-009U","COUNTRY_CODE":"US","OBJECT_TYPE":"PAYLOAD","APOAPSIS":"548.658","MEAN_ELEMENT_THEORY":"SGP4","OBJECT_NAME":"STARLINK-1965","TLE_LINE1":"1 47566U 21009U   22140.44908612 -.00001427  00000-0 -76873-4 0  9994","TLE_LINE2":"2 47566  53.0561 118.1708 0002096  40.5831 319.5314 15.06402350 72296"},{"INCLINATION":"53.0535","REF_FRAME":"TEME","FILE":"3455160","ARG_OF_PERICENTER":"41.6153","CENTER_NAME":"EARTH","ELEMENT_SET_NO":"999","DECAY_DATE":null,"SITE":"AFETR","PERIOD":"95.592","MEAN_MOTION_DOT":"0.00000904","PERIAPSIS":"545.940","MEAN_ANOMALY":"318.4978","BSTAR":"0.00007960800000","MEAN_MOTION":"15.06394912","EPOCH":"2022-05-20T08:28:41.372832","RA_OF_ASC_NODE":"158.6016","CLASSIFICATION_TYPE":"U","LAUNCH_DATE":"2021-02-04","EPHEMERIS_TYPE":"0","RCS_SIZE":"LARGE","MEAN_MOTION_DDOT":"0.0000000000000","TIME_SYSTEM":"UTC","ECCENTRICITY":"0.00018620","OBJECT_NAME":"STARLINK-1966","TLE_LINE1":"1 47567U 21009V   22140.35325663  .00000904  00000-0  79608-4 0  9990","TLE_LINE2":"2 47567  53.0535 158.6016 0001862  41.6153 318.4978 15.06394912 71105","SEMIMAJOR_AXIS":"6925.364","REV_AT_EPOCH":"7110","NORAD_CAT_ID":"47567","GP_ID":"204039725","OBJECT_ID":"2021-009V","COUNTRY_CODE":"US","OBJECT_TYPE":"PAYLOAD","APOAPSIS":"548.519","MEAN_ELEMENT_THEORY":"SGP4"},{"PERIOD":"95.592","SITE":"AFETR","DECAY_DATE":null,"ELEMENT_SET_NO":"999","CENTER_NAME":"EARTH","ARG_OF_PERICENTER":"42.1874","FILE":"3455160","REF_FRAME":"TEME","INCLINATION":"53.0539","EPOCH":"2022-05-20T07:30:17.362080","MEAN_MOTION":"15.06398196","BSTAR":"0.00007906600000","MEAN_ANOMALY":"317.9275","PERIAPSIS":"545.772","MEAN_MOTION_DOT":"0.00000896","ECCENTRICITY":"0.00020890","TIME_SYSTEM":"UTC","MEAN_MOTION_DDOT":"0.0000000000000","RCS_SIZE":"LARGE","EPHEMERIS_TYPE":"0","LAUNCH_DATE":"2021-02-04","CLASSIFICATION_TYPE":"U","RA_OF_ASC_NODE":"158.7748","MEAN_ELEMENT_THEORY":"SGP4","APOAPSIS":"548.666","OBJECT_TYPE":"PAYLOAD","COUNTRY_CODE":"US","OBJECT_ID":"2021-009W","GP_ID":"204039975","NORAD_CAT_ID":"47568","SEMIMAJOR_AXIS":"6925.354","REV_AT_EPOCH":"7110","TLE_LINE2":"2 47568  53.0539 158.7748 0002089  42.1874 317.9275 15.06398196 71103","TLE_LINE1":"1 47568U 21009W   22140.31270095  .00000896  00000-0  79066-4 0  9993","OBJECT_NAME":"STARLINK-1967"}];
